NPSAT1                  
1 44340U 19036B   25272.69453080  .00014418  00000+0  22715-2 0  9993
2 44340  23.9980 109.8949 0008126 152.0424 208.0509 14.70765936334049
FORMOSAT 7-3            
1 44343U 19036E   25272.89525628  .00011192  00000+0  71064-3 0  9994
2 44343  23.9985 166.3413 0001030  67.4001 292.6611 15.06741592343896
FORMOSAT 7-1            
1 44349U 19036L   25272.89980599  .00007267  00000+0  58000-3 0  9995
2 44349  23.9997 348.6810 0001331 140.7800 219.2798 14.97663701345603
FORMOSAT 7-4            
1 44350U 19036M   25272.72122088  .00007405  00000+0  59177-3 0  9990
2 44350  23.9995  51.9642 0001325 127.0189 233.0434 14.97644990344992
FORMOSAT 7-2            
1 44351U 19036N   25272.81058415  .00007294  00000+0  58230-3 0  9998
2 44351  23.9981 105.6830 0001087 135.5195 224.5393 14.97659093344528
FORMOSAT 7-6            
1 44353U 19036Q   25272.41088149  .00006507  00000+0  51695-3 0  9997
2 44353  23.9986 289.2138 0001551 160.3278 199.7283 14.97644342342697
FORMOSAT 7-5            
1 44358U 19036V   25272.19797070  .00006893  00000+0  54390-3 0  9990
2 44358  23.9987 229.5403 0001200  29.3662 330.6906 14.98006783343193
METEOR-M2 2             
1 44387U 19038A   25272.97325392  .00000332  00000+0  16366-3 0  9997
2 44387  98.8878 251.8281 0002234  65.6764 294.4647 14.24243820324250
COSMOS 2535             
1 44421U 19039A   25272.91881635  .00003211  00000+0  32960-3 0  9995
2 44421  97.6103 305.7242 0008686  11.2662 348.8750 14.91055918337845
GLOBAL-4                
1 44499U 19054E   25272.41067261  .00041162  00000+0  91075-3 0  9992
2 44499  45.0108 276.0934 0006020  49.8078 310.3337 15.43178814339811
ZY-1 02D                
1 44528U 19059A   25273.00073853  .00000356  00000+0  13865-3 0  9991
2 44528  98.3568 338.2043 0001875 145.3142 214.8166 14.35452644317016
TAURUS-1 (JINNIUZUO 1)  
1 44530U 19059C   25272.96737201  .00016869  00000+0  29861-2 0  9990
2 44530  98.6192  57.8792 0009100  49.4870 310.7124 14.67375123320410
ZHUHAI-1 03B            
1 44536U 19060C   25272.92969862  .00042525  00000+0  11769-2 0  9990
2 44536  97.5319  55.5079 0012415 179.7712 180.3540 15.36799060336128
ZHUHAI-1 03C            
1 44537U 19060D   25272.98056741  .00055213  00000+0  10388-2 0  9994
2 44537  97.5571  60.4500 0016658 144.6996 215.5361 15.48221967336458
ZHUHAI-1 03D            
1 44538U 19060E   25272.97646303  .00039486  00000+0  12012-2 0  9993
2 44538  97.5146  49.7729 0011665 160.8910 199.2772 15.33850412335987
ZHUHAI-1 03E            
1 44539U 19060F   25272.96688616  .00031180  00000+0  10646-2 0  9990
2 44539  97.5345  51.4962 0010319 216.6477 143.4058 15.30210444335824
ATLAS 5 CENTAUR DEB     
1 44694U 18079BG  25258.26573117 -.00000140  00000+0  00000+0 0  9990
2 44694  13.3174  61.6000 4740835 255.1008  49.4561  1.77425442 41687
GAOFEN-7                
1 44703U 19072A   25272.94409147  .00011083  00000+0  49640-3 0  9991
2 44703  97.2799 338.6281 0011492 215.7357 144.3111 15.21359558328070
STARLINK-1010           
1 44716U 19074D   25273.00002315  .00239432  00000+0  11482-2 0  9993
2 44716  53.0484 132.2140 0006882  88.4661 318.5514 15.81498164  5906
JILIN-1 GAOFEN 2A       
1 44777U 19075A   25272.93264132  .00022483  00000+0  76387-3 0  9991
2 44777  97.5223 346.9492 0006518 294.0518  66.0040 15.30468888324955
NINGXIA-1 1             
1 44779U 19076A   25273.01463233  .00000028  00000+0  10268-3 0  9994
2 44779  45.0051 262.4701 0011287 358.3016   1.7778 14.01979240301343
NINGXIA-1 5             
1 44783U 19076E   25272.95593817  .00000040  00000+0  11051-3 0  9998
2 44783  45.0050 262.0746 0011388 346.8278  13.2257 14.01964243301253
KL-ALPHA A              
1 44785U 19077A   25273.01437294  .00000113  00000+0  14403-3 0  9990
2 44785  88.9072 251.2206 0012281 139.7539 220.4526 13.56007111290471
CARTOSAT-3              
1 44804U 19081A   25272.99406899  .00009606  00000+0  45795-3 0  9994
2 44804  97.4688 333.4634 0012886 345.0940  14.9913 15.19241584323960
JILIN-1 GAOFEN 2B       
1 44836U 19086A   25272.97728771  .00013405  00000+0  68949-3 0  9996
2 44836  97.5204 341.8783 0016471 141.8146 218.4258 15.16451923320992
DUCHIFAT-3              
1 44854U 19089C   25272.57568815  .00179528  00000+0  20836-2 0  9997
2 44854  36.9387 357.4103 0006077 115.4647 244.6743 15.60246095320423
ANGELS                  
1 44876U 19092D   25272.01732137  .00061282  00000+0  10492-2 0  9998
2 44876  97.4457 113.7031 0007425  85.5012 274.7088 15.51010470321378
TIANQIN 1 (CAS-6)       
1 44879U 19093A   25272.91941822  .00008045  00000+0  77099-3 0  9999
2 44879  97.8007 353.7363 0011378 192.9590 167.1339 14.93360864313179
ETRSS-1                 
1 44880U 19093B   25272.98003707  .00009133  00000+0  87044-3 0  9999
2 44880  97.8013 354.0872 0011653 193.6165 166.4742 14.93538770313183
TIANYAN 01              
1 44881U 19093C   25272.96624932  .00002297  00000+0  26972-3 0  9994
2 44881  97.7832 346.2293 0012822 217.8325 142.1990 14.85838428312761
TIANYAN 02              
1 44882U 19093D   25272.96804157  .00016221  00000+0  12871-2 0  9998
2 44882  97.8104   1.0075 0015860 184.7021 175.4056 15.00491374313529
CBERS 4A                
1 44883U 19093E   25272.94477237  .00003037  00000+0  39258-3 0  9992
2 44883  97.7829 343.0987 0000670 346.8857  13.2338 14.81639418312549
WEILAI 1R               
1 44884U 19093F   25272.95704131  .00011456  00000+0  99060-3 0  9991
2 44884  97.8037 357.7591 0009943 189.0987 171.0056 14.97313697313432
FLORIPASAT-1            
1 44885U 19093G   25272.95765333  .00013810  00000+0  11193-2 0  9999
2 44885  97.8121   0.8601 0009735 193.5758 166.5204 14.99777418313587
SHUNTIAN                
1 44886U 19093H   25272.92656948  .00008290  00000+0  79815-3 0  9990
2 44886  97.8159 357.5819 0011669 204.3228 155.7442 14.93166319313315
2019-093L               
1 44889U 19093L   25272.91770500  .00007145  00000+0  70279-3 0  9996
2 44889  97.7808 349.2773 0012176 190.6204 169.4760 14.92358125312951
ELEKTRO-L 3             
1 44903U 19095A   25272.87285382 -.00000095  00000+0  00000+0 0  9998
2 44903   0.0543 312.1945 0001311 284.5514 162.4025  1.00272891 21096
GONETS-M 14             
1 44905U 19096A   25272.96102065  .00000029  00000+0  14020-3 0  9994
2 44905  82.5198 245.9326 0014028   6.8380 353.2889 12.42896801261354
GONETS-M 15             
1 44906U 19096B   25272.98726574  .00000058  00000+0  34474-3 0  9991
2 44906  82.5217 246.3312 0016547  27.8703 332.3259 12.42861253261326
GONETS-M 16             
1 44907U 19096C   25272.93632698  .00000048  00000+0  27575-3 0  9993
2 44907  82.5164 245.4363 0012669  66.5254 293.7156 12.42858579261307
RS-44 & BREEZE-KM R/B   
1 44909U 19096E   25272.74349034  .00000021  00000+0  37203-4 0  9994
2 44909  82.5233 152.7809 0218200  33.5267 327.9428 12.79743996269034
JILIN-1 KUANFU 01       
1 45016U 20003A   25272.95531525  .00009490  00000+0  58271-3 0  9991
2 45016  97.5319 346.7768 0005588 158.4183 201.7283 15.10293691316054
XINGYUN-2 01            
1 45602U 20028A   25272.96060244  .00005227  00000+0  32449-3 0  9998
2 45602  97.4739 266.0792 0010301  30.6371 329.5458 15.10073470295544
XINGYUN-2 02            
1 45603U 20028B   25272.96802558  .00005874  00000+0  36539-3 0  9993
2 45603  97.5119 278.7990 0013100  87.3781 272.8948 15.09924169295544
HAIYANG-1D              
1 45721U 20036A   25272.95648453  .00000462  00000+0  18015-3 0  9991
2 45721  98.4229 215.7117 0002504 180.6653 179.4530 14.34185428277677
M2 PATHFINDER           
1 45727U 20037E   25272.49092196  .00005445  00000+0  41071-3 0  9998
2 45727  97.8175  96.0424 0010794 320.6457  39.3983 15.02824277286310
GAOFEN DUOMO (GFDM)     
1 45856U 20042A   25272.96711556  .00002057  00000+0  29980-3 0  9998
2 45856  97.8129 336.7821 0011479 187.7223 172.3813 14.76820249282604
ZINYUAN-3               
1 45939U 20051A   25272.92583332  .00011594  00000+0  51835-3 0  9995
2 45939  97.3166 343.5503 0003524 137.6769 222.4740 15.21465919287775
TYVAK-0172              
1 46267U 20059C   25272.59464976  .00104853  00000+0  25626-2 0  9992
2 46267  97.7501 137.9575 0003240 101.6436 258.5173 15.40411210278145
ION-MK01                
1 46274U 20061C   25272.71867718  .00070649  00000+0  93909-3 0  9993
2 46274  97.2294 341.5911 0002688 145.8273 214.3157 15.57963004282393
UPMSAT-2                
1 46276U 20061E   25272.78172815  .00696452  22999-3  12273-2 0  9994
2 46276  97.2275 352.6233 0004274 245.9413 114.1420 16.02027699283174
NEMO-HD                 
1 46277U 20061F   25272.97429874  .00018524  00000+0  49468-3 0  9996
2 46277  97.2323 333.0783 0000701 124.0363 236.0949 15.38151698281896
3CAT-5A                 
1 46292U 20061W   25272.10612271  .00024012  00000+0  67355-3 0  9997
2 46292  97.2816 331.4284 0002159  34.3626 325.7758 15.36570367280802
3CAT-5B                 
1 46293U 20061X   25272.71886736  .00028927  00000+0  79304-3 0  9990
2 46293  97.2824 332.6070 0002183  26.2868 333.8487 15.37247415280909
NAPA-1                  
1 46320U 20061BA  25272.99353090  .00024300  00000+0  53329-3 0  9993
2 46320  97.2880 338.2519 0001081 132.4094 227.7246 15.44045847281312
JILIN-1 GAOFEN 3B       
1 46454U 20065A   25272.98910488  .00063331  00000+0  10873-2 0  9997
2 46454  97.2677 321.4431 0003497  23.9956 336.1458 15.50945917279620
JILIN-1 GAOFEN 3E       
1 46457U 20065D   25272.99487115  .00046430  00000+0  11052-2 0  9998
2 46457  97.2723 318.5166 0019864  42.2112 318.0660 15.41269947279413
JILIN-1 GAOFEN 3F       
1 46458U 20065E   25272.96213181  .00044148  00000+0  10800-2 0  9990
2 46458  97.2660 316.6028 0020792  29.3910 330.8501 15.40435965279391
JILIN-1 GAOFEN 3G       
1 46459U 20065F   25272.98333839  .00043117  00000+0  96495-3 0  9996
2 46459  97.2761 321.0138 0016360 289.5470  70.4011 15.43204528279499
